[{"OBJECT_NAME":"STARLINK-5048","OBJECT_ID":"2022-119AB","EPOCH":"2025-08-15T05:28:45.235776","MEAN_MOTION":15.08841285,"ECCENTRICITY":0.0001438,"INCLINATION":53.2169,"RA_OF_ASC_NODE":161.1436,"ARG_OF_PERICENTER":95.0825,"MEAN_ANOMALY":265.0332,"EPHEMERIS_TYPE":0,"CLASSIFICATION_TYPE":"U","NORAD_CAT_ID":53911,"ELEMENT_SET_NO":999,"REV_AT_EPOCH":16065,"BSTAR":3.4745e-5,"MEAN_MOTION_DOT":2.65e-6,"MEAN_MOTION_DDOT":0},{"OBJECT_NAME":"STARLINK-5059","OBJECT_ID":"2022-119AC","EPOCH":"2025-08-15T12:11:24.542016","MEAN_MOTION":15.08835478,"ECCENTRICITY":0.0001324,"INCLINATION":53.2168,"RA_OF_ASC_NODE":159.3492,"ARG_OF_PERICENTER":91.2095,"MEAN_ANOMALY":268.9049,"EPHEMERIS_TYPE":0,"CLASSIFICATION_TYPE":"U","NORAD_CAT_ID":53912,"ELEMENT_SET_NO":999,"REV_AT_EPOCH":16070,"BSTAR":3.2671e-6,"MEAN_MOTION_DOT":-2.36e-6,"MEAN_MOTION_DDOT":0},{"OBJECT_NAME":"STARLINK-5053","OBJECT_ID":"2022-119AD","EPOCH":"2025-08-15T12:59:09.433824","MEAN_MOTION":15.08845218,"ECCENTRICITY":0.0001656,"INCLINATION":53.2175,"RA_OF_ASC_NODE":159.5425,"ARG_OF_PERICENTER":88.56,"MEAN_ANOMALY":271.5581,"EPHEMERIS_TYPE":0,"CLASSIFICATION_TYPE":"U","NORAD_CAT_ID":53913,"ELEMENT_SET_NO":999,"REV_AT_EPOCH":16070,"BSTAR":5.4943e-5,"MEAN_MOTION_DOT":5.87e-6,"MEAN_MOTION_DDOT":0},{"OBJECT_NAME":"STARLINK-5040","OBJECT_ID":"2022-119AE","EPOCH":"2025-08-15T12:53:51.383328","MEAN_MOTION":15.08838248,"ECCENTRICITY":0.0001706,"INCLINATION":53.2186,"RA_OF_ASC_NODE":159.5232,"ARG_OF_PERICENTER":84.2958,"MEAN_ANOMALY":275.8229,"EPHEMERIS_TYPE":0,"CLASSIFICATION_TYPE":"U","NORAD_CAT_ID":53914,"ELEMENT_SET_NO":999,"REV_AT_EPOCH":16070,"BSTAR":1.4216e-5,"MEAN_MOTION_DOT":-6.2e-7,"MEAN_MOTION_DDOT":0},{"OBJECT_NAME":"STARLINK-5017","OBJECT_ID":"2022-119AF","EPOCH":"2025-08-15T13:15:04.311936","MEAN_MOTION":15.08839588,"ECCENTRICITY":0.0001416,"INCLINATION":53.2172,"RA_OF_ASC_NODE":159.6104,"ARG_OF_PERICENTER":94.5541,"MEAN_ANOMALY":265.5613,"EPHEMERIS_TYPE":0,"CLASSIFICATION_TYPE":"U","NORAD_CAT_ID":53915,"ELEMENT_SET_NO":999,"REV_AT_EPOCH":16070,"BSTAR":3.8848e-6,"MEAN_MOTION_DOT":-2.26e-6,"MEAN_MOTION_DDOT":0},{"OBJECT_NAME":"STARLINK-5051","OBJECT_ID":"2022-119AG","EPOCH":"2025-08-15T04:06:32.117184","MEAN_MOTION":15.08835769,"ECCENTRICITY":0.0001574,"INCLINATION":53.2179,"RA_OF_ASC_NODE":140.8732,"ARG_OF_PERICENTER":97.9504,"MEAN_ANOMALY":262.1667,"EPHEMERIS_TYPE":0,"CLASSIFICATION_TYPE":"U","NORAD_CAT_ID":53916,"ELEMENT_SET_NO":999,"REV_AT_EPOCH":16094,"BSTAR":-2.2718e-5,"MEAN_MOTION_DOT":-6.5e-6,"MEAN_MOTION_DDOT":0},{"OBJECT_NAME":"STARLINK-5036","OBJECT_ID":"2022-119AH","EPOCH":"2025-08-15T13:04:27.758208","MEAN_MOTION":15.08840225,"ECCENTRICITY":0.0001625,"INCLINATION":53.2176,"RA_OF_ASC_NODE":159.5652,"ARG_OF_PERICENTER":91.7984,"MEAN_ANOMALY":268.3194,"EPHEMERIS_TYPE":0,"CLASSIFICATION_TYPE":"U","NORAD_CAT_ID":53917,"ELEMENT_SET_NO":999,"REV_AT_EPOCH":16070,"BSTAR":1.2384e-5,"MEAN_MOTION_DOT":-9.1e-7,"MEAN_MOTION_DDOT":0},{"OBJECT_NAME":"STARLINK-5012","OBJECT_ID":"2022-119AJ","EPOCH":"2025-08-15T12:48:33.061536","MEAN_MOTION":15.08835361,"ECCENTRICITY":0.0001429,"INCLINATION":53.2171,"RA_OF_ASC_NODE":159.4953,"ARG_OF_PERICENTER":86.1042,"MEAN_ANOMALY":274.0113,"EPHEMERIS_TYPE":0,"CLASSIFICATION_TYPE":"U","NORAD_CAT_ID":53918,"ELEMENT_SET_NO":999,"REV_AT_EPOCH":16070,"BSTAR":4.0532e-5,"MEAN_MOTION_DOT":3.57e-6,"MEAN_MOTION_DDOT":0},{"OBJECT_NAME":"STARLINK-5023","OBJECT_ID":"2022-119AK","EPOCH":"2025-08-15T12:43:14.560896","MEAN_MOTION":15.08838136,"ECCENTRICITY":0.0001331,"INCLINATION":53.2168,"RA_OF_ASC_NODE":159.4727,"ARG_OF_PERICENTER":87.1707,"MEAN_ANOMALY":272.9437,"EPHEMERIS_TYPE":0,"CLASSIFICATION_TYPE":"U","NORAD_CAT_ID":53919,"ELEMENT_SET_NO":999,"REV_AT_EPOCH":16070,"BSTAR":4.2041e-5,"MEAN_MOTION_DOT":3.81e-6,"MEAN_MOTION_DDOT":0},{"OBJECT_NAME":"STARLINK-5025","OBJECT_ID":"2022-119AL","EPOCH":"2025-08-15T02:03:27.864288","MEAN_MOTION":15.08834742,"ECCENTRICITY":0.0001202,"INCLINATION":53.2169,"RA_OF_ASC_NODE":161.6715,"ARG_OF_PERICENTER":80.5368,"MEAN_ANOMALY":279.576,"EPHEMERIS_TYPE":0,"CLASSIFICATION_TYPE":"U","NORAD_CAT_ID":53920,"ELEMENT_SET_NO":999,"REV_AT_EPOCH":16063,"BSTAR":3.0369e-5,"MEAN_MOTION_DOT":1.95e-6,"MEAN_MOTION_DDOT":0},{"OBJECT_NAME":"STARLINK-5002","OBJECT_ID":"2022-119AN","EPOCH":"2025-08-15T12:27:19.625760","MEAN_MOTION":15.0882807,"ECCENTRICITY":0.0001189,"INCLINATION":53.2167,"RA_OF_ASC_NODE":159.4048,"ARG_OF_PERICENTER":78.304,"MEAN_ANOMALY":281.8086,"EPHEMERIS_TYPE":0,"CLASSIFICATION_TYPE":"U","NORAD_CAT_ID":53922,"ELEMENT_SET_NO":999,"REV_AT_EPOCH":16070,"BSTAR":0.00014112,"MEAN_MOTION_DOT":1.958e-5,"MEAN_MOTION_DDOT":0},{"OBJECT_NAME":"STARLINK-5004","OBJECT_ID":"2022-119AP","EPOCH":"2025-08-15T12:37:55.781184","MEAN_MOTION":15.08842,"ECCENTRICITY":0.0001351,"INCLINATION":53.2171,"RA_OF_ASC_NODE":159.4511,"ARG_OF_PERICENTER":88.8045,"MEAN_ANOMALY":271.3102,"EPHEMERIS_TYPE":0,"CLASSIFICATION_TYPE":"U","NORAD_CAT_ID":53923,"ELEMENT_SET_NO":999,"REV_AT_EPOCH":16070,"BSTAR":8.5816e-5,"MEAN_MOTION_DOT":1.078e-5,"MEAN_MOTION_DDOT":0},{"OBJECT_NAME":"STARLINK-5001","OBJECT_ID":"2022-119AQ","EPOCH":"2025-08-15T12:46:33.614400","MEAN_MOTION":15.08842249,"ECCENTRICITY":0.0001568,"INCLINATION":53.2172,"RA_OF_ASC_NODE":154.5034,"ARG_OF_PERICENTER":87.5991,"MEAN_ANOMALY":272.5181,"EPHEMERIS_TYPE":0,"CLASSIFICATION_TYPE":"U","NORAD_CAT_ID":53924,"ELEMENT_SET_NO":999,"REV_AT_EPOCH":16077,"BSTAR":0.00010822,"MEAN_MOTION_DOT":1.435e-5,"MEAN_MOTION_DDOT":0},{"OBJECT_NAME":"STARLINK-5011","OBJECT_ID":"2022-119AR","EPOCH":"2025-08-15T02:33:47.498400","MEAN_MOTION":15.08831674,"ECCENTRICITY":0.0001356,"INCLINATION":53.2171,"RA_OF_ASC_NODE":161.1082,"ARG_OF_PERICENTER":90.8384,"MEAN_ANOMALY":269.2763,"EPHEMERIS_TYPE":0,"CLASSIFICATION_TYPE":"U","NORAD_CAT_ID":53925,"ELEMENT_SET_NO":999,"REV_AT_EPOCH":16064,"BSTAR":-1.9004e-5,"MEAN_MOTION_DOT":-5.9e-6,"MEAN_MOTION_DDOT":0},{"OBJECT_NAME":"STARLINK-5014","OBJECT_ID":"2022-119AS","EPOCH":"2025-08-15T12:30:38.492640","MEAN_MOTION":15.08838451,"ECCENTRICITY":0.0001355,"INCLINATION":53.2173,"RA_OF_ASC_NODE":154.431,"ARG_OF_PERICENTER":86.3253,"MEAN_ANOMALY":273.7894,"EPHEMERIS_TYPE":0,"CLASSIFICATION_TYPE":"U","NORAD_CAT_ID":53926,"ELEMENT_SET_NO":999,"REV_AT_EPOCH":16078,"BSTAR":6.1472e-5,"MEAN_MOTION_DOT":6.91e-6,"MEAN_MOTION_DDOT":0},{"OBJECT_NAME":"STARLINK-5008","OBJECT_ID":"2022-119AT","EPOCH":"2025-08-15T07:48:33.402240","MEAN_MOTION":15.61556328,"ECCENTRICITY":0.0005875,"INCLINATION":53.1888,"RA_OF_ASC_NODE":92.1797,"ARG_OF_PERICENTER":99.8363,"MEAN_ANOMALY":260.3315,"EPHEMERIS_TYPE":0,"CLASSIFICATION_TYPE":"U","NORAD_CAT_ID":53927,"ELEMENT_SET_NO":999,"REV_AT_EPOCH":16163,"BSTAR":0.0011654,"MEAN_MOTION_DOT":0.00102678,"MEAN_MOTION_DDOT":0},{"OBJECT_NAME":"STARLINK-5009","OBJECT_ID":"2022-119AU","EPOCH":"2025-08-15T04:47:38.743872","MEAN_MOTION":15.08846434,"ECCENTRICITY":0.0001494,"INCLINATION":53.2168,"RA_OF_ASC_NODE":150.9893,"ARG_OF_PERICENTER":101.3308,"MEAN_ANOMALY":258.7852,"EPHEMERIS_TYPE":0,"CLASSIFICATION_TYPE":"U","NORAD_CAT_ID":53928,"ELEMENT_SET_NO":999,"REV_AT_EPOCH":16079,"BSTAR":-9.9651e-6,"MEAN_MOTION_DOT":-4.47e-6,"MEAN_MOTION_DDOT":0}]
