STARLINK-5048           
1 53911U 22119AB  25227.22830134  .00000265  00000+0  34745-4 0  9994
2 53911  53.2169 161.1436 0001438  95.0825 265.0332 15.08841285160655
STARLINK-5059           
1 53912U 22119AC  25227.50792294 -.00000236  00000+0  32671-5 0  9996
2 53912  53.2168 159.3492 0001324  91.2095 268.9049 15.08835478160707
STARLINK-5053           
1 53913U 22119AD  25227.54108141  .00000587  00000+0  54943-4 0  9996
2 53913  53.2175 159.5425 0001656  88.5600 271.5581 15.08845218160707
STARLINK-5040           
1 53914U 22119AE  25227.53740027 -.00000062  00000+0  14216-4 0  9999
2 53914  53.2186 159.5232 0001706  84.2958 275.8229 15.08838248160702
STARLINK-5017           
1 53915U 22119AF  25227.55213324 -.00000226  00000+0  38848-5 0  9997
2 53915  53.2172 159.6104 0001416  94.5541 265.5613 15.08839588160708
STARLINK-5051           
1 53916U 22119AG  25227.17120506 -.00000650  00000+0 -22718-4 0  9995
2 53916  53.2179 140.8732 0001574  97.9504 262.1667 15.08835769160941
STARLINK-5036           
1 53917U 22119AH  25227.54476572 -.00000091  00000+0  12384-4 0  9990
2 53917  53.2176 159.5652 0001625  91.7984 268.3194 15.08840225160708
STARLINK-5012           
1 53918U 22119AJ  25227.53371599  .00000357  00000+0  40532-4 0  9993
2 53918  53.2171 159.4953 0001429  86.1042 274.0113 15.08835361160702
STARLINK-5023           
1 53919U 22119AK  25227.53002964  .00000381  00000+0  42041-4 0  9995
2 53919  53.2168 159.4727 0001331  87.1707 272.9437 15.08838136160708
STARLINK-5025           
1 53920U 22119AL  25227.08573917  .00000195  00000+0  30369-4 0  9991
2 53920  53.2169 161.6715 0001202  80.5368 279.5760 15.08834742160633
STARLINK-5002           
1 53922U 22119AN  25227.51897715  .00001958  00000+0  14112-3 0  9991
2 53922  53.2167 159.4048 0001189  78.3040 281.8086 15.08828070160705
STARLINK-5004           
1 53923U 22119AP  25227.52634006  .00001078  00000+0  85816-4 0  9998
2 53923  53.2171 159.4511 0001351  88.8045 271.3102 15.08842000160700
STARLINK-5001           
1 53924U 22119AQ  25227.53233350  .00001435  00000+0  10822-3 0  9998
2 53924  53.2172 154.5034 0001568  87.5991 272.5181 15.08842249160776
STARLINK-5011           
1 53925U 22119AR  25227.10679975 -.00000590  00000+0 -19004-4 0  9994
2 53925  53.2171 161.1082 0001356  90.8384 269.2763 15.08831674160646
STARLINK-5014           
1 53926U 22119AS  25227.52127885  .00000691  00000+0  61472-4 0  9995
2 53926  53.2173 154.4310 0001355  86.3253 273.7894 15.08838451160782
STARLINK-5008           
1 53927U 22119AT  25227.32538660  .00102678  00000+0  11654-2 0  9994
2 53927  53.1888  92.1797 0005875  99.8363 260.3315 15.61556328161638
STARLINK-5009           
1 53928U 22119AU  25227.19975398 -.00000447  00000+0 -99651-5 0  9992
2 53928  53.2168 150.9893 0001494 101.3308 258.7852 15.08846434160796
